GLOBALSTAR M061 [-]     
1 25964U 99062D   17345.62922168 -.00000101  00000-0 -33831-3 0  9993
2 25964  51.9800  92.8237 0006206 198.2409 264.3155 11.76724257798270
